MONITOR-4 (RS57S)       
1 57182U 23091S   25066.41727660  .00010563  00000+0  54379-3 0  9995
2 57182  97.5744 123.3972 0013653 293.2910  66.6886 15.16522969 93280
MONITOR-2 (RS39S)       
1 57184U 23091U   25066.41111978  .00006414  00000+0  36806-3 0  9991
2 57184  97.5754 122.6886 0011326 291.1744  68.8276 15.12847728 93237
SVYATOBOR 1 (RS60S)     
1 57187U 23091X   25066.38421262  .00009879  00000+0  50835-3 0  9996
2 57187  97.5750 124.1132 0010426 283.2248  76.7821 15.16589124 93329
VIZARD-METEO (RS38S)    
1 57189U 23091Z   25066.39163237  .00013150  00000+0  60913-3 0  9999
2 57189  97.5737 125.4201 0009112 276.1079  83.9118 15.20192404 93415
NANOZOND 1 (RS49S)      
1 57190U 23091AA  25066.44008993  .00026335  00000+0  94063-3 0  9996
2 57190  97.5696 127.8985 0007014 269.9429  90.1006 15.28801692 93593
POLYTECH-UNIVERSE 3 (R*)
1 57191U 23091AB  25066.41517648  .00006601  00000+0  37750-3 0  9990
2 57191  97.5724 122.2665 0016339 308.5857  51.3910 15.12898993 93221
UTMN 2 (RS27S)          
1 57203U 23091AP  25066.40040086  .00011066  00000+0  53376-3 0  9993
2 57203  97.5740 124.9437 0009509 278.0074  82.0080 15.18831642 93382
ARCCUBE 1 (RS25S)       
1 57205U 23091AR  25066.45914016  .00040707  00000+0  12181-2 0  9995
2 57205  97.5628 129.0107 0006901 265.8067  94.2387 15.34409878 93686
KUZGTU 1 (RS47S)        
1 57217U 23091AV  25066.41072245  .00011191  00000+0  56298-3 0  9996
2 57217  97.5729 123.6062 0013111 292.6642  67.3204 15.17323536 93304
SONATE-2                
1 59112U 24043Q   25066.34906175  .00020708  00000+0  69169-3 0  9995
2 59112  97.4985 196.0175 0012157  90.6823 269.5810 15.30985877 55896
MESAT1                  
1 60209U 24125G   25066.12016955  .00018699  00000+0  61626-3 0  9995
2 60209  97.2930 279.0086 0021939 114.4281 245.9253 15.31270563 37470
OOV-CUBE (TUBSAT-30)    
1 60240U 24128F   25065.46198671  .00004723  00000+0  39433-3 0  9999
2 60240  61.9970  52.5400 0041716  32.2966 328.0665 14.99299611 35895
COLIBRI-S (RS67S)       
1 61746U 24199M   25066.49054539  .00015972  00000+0  56847-3 0  9993
2 61746  97.3732 295.8404 0013849 152.0221 208.1766 15.28950289 65692
HORS 3 (RS81S)          
1 61753U 24199U   25066.41249513  .00018015  00000+0  62975-3 0  9991
2 61753  97.3703 295.7493 0011952 158.5707 201.6036 15.29536564 65682
HORS 4 (RS82S)          
1 61754U 24199V   25066.52086214  .00020734  00000+0  71295-3 0  9997
2 61754  97.3699 295.9057 0012015 158.2280 201.9473 15.30043955 65709
HORIZON (RS59S)         
1 61757U 24199Y   25066.39629057  .00026065  00000+0  85469-3 0  9994
2 61757  97.3726 295.9607 0013078 149.5319 210.6685 15.31521366 65698
SIT-2086                
1 61764U 24199AF  25066.40447847  .00020838  00000+0  70003-3 0  9999
2 61764  97.3704 295.9122 0010417 157.8182 202.3512 15.30815284 62539
MORDOVIA-IOT (RS50S)    
1 61765U 24199AG  25066.50315797  .00033211  00000+0  10220-2 0  9992
2 61765  97.3719 296.2714 0012658 145.1122 215.0953 15.33509259 62579
RUZAEVKA 390 (RS44S)    
1 61766U 24199AH  25066.52179155  .00030715  00000+0  96283-3 0  9991
2 61766  97.3718 296.2431 0012634 144.8886 215.3191 15.32936293 62570
HYPERVIEW 1G (RS66S)    
1 61772U 24199AP  25066.49200983  .00022830  00000+0  78504-3 0  9993
2 61772  97.3700 295.7916 0015495 163.3409 196.8344 15.29976918 62549
ALTAIR (RS65S)          
1 61779U 24199AW  25066.42929865  .00010052  00000+0  38608-3 0  9994
2 61779  97.3720 295.4357 0016636 165.4166 194.7556 15.26512581 65662
ASRTU-1 (AO-123)        
1 61781U 24199AY  25066.37905243  .00010386  00000+0  40143-3 0  9992
2 61781  97.3707 295.3472 0016783 166.0127 194.1580 15.26290114 62500
TUSUR GO (RS78S)        
1 61782U 24199AZ  25066.38139195  .00026632  00000+0  91122-3 0  9993
2 61782  97.3698 295.6370 0016299 163.6217 196.5554 15.30094320 62520
SAMSAT-IONOSPHERE (RS7*)
1 61784U 24199BB  25066.41811808  .00019024  00000+0  67857-3 0  9992
2 61784  97.3705 295.5925 0016600 164.4036 195.7719 15.28801096 65676
RTU MIREA 1 (RS51S)     
1 61785U 24199BC  25066.41083666  .00019887  00000+0  70467-3 0  9994
2 61785  97.3704 295.6020 0016463 163.7889 196.3882 15.29010598 62527
HADES-R                 
1 62690U 25009CK  25064.74565157  .00041169  00000+0  19148-2 0  9991
2 62690  97.4173 146.4975 0002614  83.6593 276.4939 15.19827975  7549
